ONEWEB-0235             
1 48771U 21045E   24361.25086148  .00000140  00000+0  33892-3 0  9991
2 48771  87.9061   6.2925 0001077  86.1032 274.0222 13.15550823173653
ONEWEB-0242             
1 48772U 21045F   24361.01636278  .00000181  00000+0  44796-3 0  9991
2 48772  87.9061   6.3260 0001545  85.9910 274.1397 13.15550735173666
ONEWEB-0241             
1 48773U 21045G   24361.23187079  .00000201  00000+0  49918-3 0  9990
2 48773  87.9071   6.3482 0001495 102.0605 258.0693 13.15548643173609
ONEWEB-0243             
1 48774U 21045H   24361.26355414  .00000058  00000+0  11941-3 0  9999
2 48774  87.9072   6.3024 0001262  82.9443 277.1831 13.15548311173632
ONEWEB-0222             
1 48775U 21045J   24361.09479859  .00000179  00000+0  44238-3 0  9990
2 48775  87.9061   6.3189 0001531  94.2597 265.8709 13.15549754173650
ONEWEB-0244             
1 48776U 21045K   24361.27304778  .00000006  00000+0 -18742-4 0  9990
2 48776  87.9058   6.2631 0001640  86.1043 274.0275 13.15550727174243
ONEWEB-0247             
1 48777U 21045L   24361.26989180  .00000017  00000+0  11144-4 0  9996
2 48777  87.9065   6.3196 0000817  71.1962 288.9257 13.15549751173684
ONEWEB-0245             
1 48778U 21045M   24361.26513213  .00000045  00000+0  86110-4 0  9993
2 48778  87.9060   6.2980 0001624  98.7144 261.4170 13.15550092173651
